{
  "norad_id": 51858,
  "name": "STARLINK-3563",
  "history": [
    {
      "epoch": "2026-03-28T20:22:21.777888Z",
      "apogee_km": 540.6954297213542,
      "perigee_km": 538.759119510888,
      "latitude_deg": -3.392002017380572e-05,
      "longitude_deg": 161.25881995428608,
      "height_km": 540.656260336718,
      "semi_major_axis_km": 6917.86427461612,
      "eccentricity": 0.00013995,
      "inclination_deg": 53.2176,
      "raan_deg": 293.113,
      "arg_perigee_deg": 91.9714,
      "mean_anomaly_deg": 268.1438,
      "mean_motion_rev_day": 15.08845272
    },
    {
      "epoch": "2026-03-28T23:33:08.035200Z",
      "apogee_km": 540.6980765110202,
      "perigee_km": 538.7560937050484,
      "latitude_deg": 8.140753960768611e-06,
      "longitude_deg": 112.84093429657516,
      "height_km": 540.6546014484958,
      "semi_major_axis_km": 6917.864085108034,
      "eccentricity": 0.00014036,
      "inclination_deg": 53.2176,
      "raan_deg": 292.5184,
      "arg_perigee_deg": 91.8796,
      "mean_anomaly_deg": 268.2357,
      "mean_motion_rev_day": 15.08845334
    },
    {
      "epoch": "2026-03-30T13:42:24.129504Z",
      "apogee_km": 540.7665309518989,
      "perigee_km": 538.7519012158518,
      "latitude_deg": 1.8954892130435493e-05,
      "longitude_deg": -108.17996453225281,
      "height_km": 540.7089023930363,
      "semi_major_axis_km": 6917.8962160838755,
      "eccentricity": 0.00014561,
      "inclination_deg": 53.2178,
      "raan_deg": 285.3815,
      "arg_perigee_deg": 93.0772,
      "mean_anomaly_deg": 267.0387,
      "mean_motion_rev_day": 15.08834822
    },
    {
      "epoch": "2026-03-30T20:03:56.649312Z",
      "apogee_km": 540.7654647948029,
      "perigee_km": 538.7468235753295,
      "latitude_deg": -1.0793193403667703e-05,
      "longitude_deg": 154.9841582389407,
      "height_km": 540.7016373547202,
      "semi_major_axis_km": 6917.893144185066,
      "eccentricity": 0.0001459,
      "inclination_deg": 53.2179,
      "raan_deg": 284.1923,
      "arg_perigee_deg": 92.8321,
      "mean_anomaly_deg": 267.2838,
      "mean_motion_rev_day": 15.08835827
    },
    {
      "epoch": "2026-03-31T11:57:47.966112Z",
      "apogee_km": 540.7389266518021,
      "perigee_km": 538.7673279655191,
      "latitude_deg": 2.5535735108658002e-05,
      "longitude_deg": -87.10572460072964,
      "height_km": 540.74458907401,
      "semi_major_axis_km": 6917.89012730866,
      "eccentricity": 0.0001425,
      "inclination_deg": 53.218,
      "raan_deg": 281.2191,
      "arg_perigee_deg": 95.5756,
      "mean_anomaly_deg": 264.5399,
      "mean_motion_rev_day": 15.08836814
    }
  ]
}